COSMOS 2419 (714)       
1 28915U 05050A   17062.13742361  .00000020  00000-0  00000+0 0  9999
2 28915  65.4442  69.4258 0016459 345.3611  95.8968  2.13110360 87078
COSMOS 2425 (716)       
1 29670U 06062A   17061.90405167 -.00000008  00000-0  10000-3 0  9998
2 29670  65.5129 308.4470 0022934 347.6126 328.4639  2.13105014 79265
COSMOS 2426 (717)       
1 29671U 06062B   17061.78839572 -.00000007  00000-0  10000-3 0  9995
2 29671  65.5240 308.5385 0015440 160.4394 285.9973  2.13102525 79271
COSMOS 2424 (715)       
1 29672U 06062C   17061.83540748 -.00000008  00000-0  10000-3 0  9997
2 29672  65.5147 308.4600 0015107 161.3322 136.7557  2.13102117 79265
COSMOS 2433 (720)       
1 32275U 07052A   17062.18840146  .00000020  00000-0  10000-3 0  9997
2 32275  65.4597  69.1991 0005053 277.4473  88.9679  2.13104935 72799
COSMOS 2432 (719)       
1 32276U 07052B   17062.30034609  .00000021  00000-0  10000-3 0  9992
2 32276  65.4723  69.2650 0013472 328.0051  77.4016  2.13104159 72799
COSMOS 2434 (721)       
1 32393U 07065A   17062.46680647 -.00000010  00000-0  00000+0 0  9996
2 32393  65.1292 307.6270 0004085  85.2619  24.9013  2.13102917 71508
COSMOS 2436 (723)       
1 32395U 07065C   17061.93325182 -.00000008  00000-0  10000-3 0  9991
2 32395  65.1387 307.6899 0016598   1.3235 107.6696  2.13104310 71423
COSMOS 2443 (725)       
1 33379U 08046B   17061.69734972  .00000020  00000-0  00000-0 0  9997
2 33379  65.3899  68.6080 0015922 188.4761  63.0758  2.13102422 65635
COSMOS 2456 (730)       
1 36111U 09070A   17061.73273841  .00000041  00000-0  00000+0 0  9992
2 36111  64.1803 187.2154 0003499 334.5680 103.1552  2.13102871 56157
COSMOS 2457 (733)       
1 36112U 09070B   17062.42004030  .00000037  00000-0  00000+0 0  9997
2 36112  64.1627 187.1138 0006896 154.9865 219.0716  2.13101580 56173
COSMOS 2458 (734)       
1 36113U 09070C   17062.30937566  .00000038  00000-0  10000-3 0  9990
2 36113  64.1687 187.1245 0002188  51.0164 285.9442  2.13102087 56168
COSMOS 2459 (731)       
1 36400U 10007A   17061.69844532  .00000019  00000-0  10000-3 0  9991
2 36400  65.3687  68.3351 0028894 347.9533 225.5591  2.13102307 54503
COSMOS 2461 (735)       
1 36401U 10007B   17061.64528436  .00000019  00000-0  10000-3 0  9999
2 36401  65.3614  68.3157 0004767  47.4655  35.8546  2.13102317 54501
COSMOS 2460 (732)       
1 36402U 10007C   17062.36792462  .00000020  00000-0  10000-3 0  9994
2 36402  65.3520  68.2653 0002623 294.0516  25.1354  2.13101902 54512
COSMOS 2465 (737)       
1 37138U 10041B   17062.38933895 -.00000011  00000-0  00000+0 0  9994
2 37138  64.7267 307.6719 0033912 170.8352 283.7728  2.13104583 50596
COSMOS 2464 (736)       
1 37139U 10041C   17062.13472233 -.00000009  00000-0  00000+0 0  9999
2 37139  64.7352 307.6781 0024778  12.4180  70.7165  2.13102702 50580
COSMOS 2471 (701K)      
1 37372U 11009A   17062.42323394  .00000020  00000-0  00000+0 0  9990
2 37372  65.3496  68.2113 0009220 244.9835 250.5404  2.13107929 46796
COSMOS 2474 (742)       
1 37829U 11055A   17062.38844767  .00000039  00000-0  00000+0 0  9995
2 37829  64.5051 187.7140 0006805 245.6179 195.4000  2.13101921 42165
COSMOS 2476 (744)       
1 37867U 11064A   17061.72901692  .00000042  00000-0  00000+0 0  9999
2 37867  64.4852 187.8108 0016178 242.4265  98.6055  2.13102029 41494
COSMOS 2477 (745)       
1 37868U 11064B   17061.67954958  .00000042  00000-0  00000+0 0  9997
2 37868  64.4936 187.8559 0013866 243.2064 239.0688  2.13101808 41458
COSMOS 2475 (743)       
1 37869U 11064C   17062.09581803  .00000041  00000-0  00000+0 0  9999
2 37869  64.5006 187.8324 0018758 272.8638 125.1005  2.13101934 41478
COSMOS 2485 (747)       
1 39155U 13019A   17061.79209815  .00000042  00000-0  00000-0 0  9999
2 39155  64.6546 187.8149 0016416 236.3127 198.1802  2.13102004 29975
COSMOS 2492 (754)       
1 39620U 14012A   17061.90714071  .00000019  00000-0  10000-3 0  9996
2 39620  65.2419  68.2320 0017032 325.7677 230.8908  2.13103565 22921
COSMOS 2500 (755)       
1 40001U 14032A   17062.38806106  .00000019  00000-0  00000+0 0  9992
2 40001  65.1808  68.2209 0006790 229.4862 199.3580  2.13102902 21151
COSMOS 2501 (702K)      
1 40315U 14075A   17061.72092336 -.00000010  00000-0  00000+0 0  9998
2 40315  64.4611 309.0727 0013572 211.1261 233.4100  2.13098632 17541
COSMOS 2514 (751)       
1 41330U 16008A   17062.37717911  .00000019  00000-0  00000+0 0  9997
2 41330  64.9829  68.3919 0010255 230.4362   9.7842  2.13103507  8314
COSMOS 2516 (753)       
1 41554U 16032A   17062.21026240 -.00000012  00000-0  00000+0 0  9997
2 41554  64.6809 308.7897 0009942 227.5808 137.7805  2.13101842  5921
